{"type": "FeatureCollection", "features": [ {"type": "Feature", "properties": {"norad_id": 34077, "name": "IRIDIUM 33 DEB", "group": "iridium-33-debris", "lat": -37.56169828498889, "lon": 47.03049715371448, "alt_km": 681.0098422656447, "timestamp": "2025-12-16T13:52:37.907016+00:00", "meta": {"OBJECT_NAME": "IRIDIUM 33 DEB", "OBJECT_ID": "1997-051CL", "EPOCH": "2025-12-15T22:27:47.585088", "MEAN_MOTION": 14.64874946, "ECCENTRICITY": 0.00098438, "INCLINATION": 86.3861, "RA_OF_ASC_NODE": 50.0992, "ARG_OF_PERICENTER": 29.5748, "MEAN_ANOMALY": 148.2432, "EPHEMERIS_TYPE": 0, "CLASSIFICATION_TYPE": "U", "NORAD_CAT_ID": 34077, "ELEMENT_SET_NO": 999, "REV_AT_EPOCH": 88379, "BSTAR": 0.00070458138, "MEAN_MOTION_DOT": 3.788e-05, "MEAN_MOTION_DDOT": 0}, "tle": {"line1": "1 34077U 97051CL  25349.93596742  .00003788  00000+0  70458-3 0  9993", "line2": "2 34077  86.3861  50.0992 0009843  29.5748 148.2432 14.64874946883791"}}, "geometry": {"type": "Point", "coordinates": [47.03049715371448, -37.56169828498889]}}, {"type": "Feature", "properties": {"norad_id": 34079, "name": "IRIDIUM 33 DEB", "group": "iridium-33-debris", "lat": -32.636144034892226, "lon": -170.75788615495054, "alt_km": 627.054290260553, "timestamp": "2025-12-16T13:52:37.907026+00:00", "meta": {"OBJECT_NAME": "IRIDIUM 33 DEB", "OBJECT_ID": "1997-051CN", "EPOCH": "2025-12-15T22:33:58.629888", "MEAN_MOTION": 14.8361528, "ECCENTRICITY": 0.00052431, "INCLINATION": 86.3777, "RA_OF_ASC_NODE": 7.2071, "ARG_OF_PERICENTER": 357.5343, "MEAN_ANOMALY": 50.0154, "EPHEMERIS_TYPE": 0, "CLASSIFICATION_TYPE": "U", "NORAD_CAT_ID": 34079, "ELEMENT_SET_NO": 999, "REV_AT_EPOCH": 89025, "BSTAR": 0.0012456389, "MEAN_MOTION_DOT": 0.00010303, "MEAN_MOTION_DDOT": 0}, "tle": {"line1": "1 34079U 97051CN  25349.94026192  .00010303  00000+0  12456-2 0  9997", "line2": "2 34079  86.3777   7.2071 0005243 357.5343  50.0154 14.83615280890251"}}, "geometry": {"type": "Point", "coordinates": [-170.75788615495054, -32.636144034892226]}}, {"type": "Feature", "properties": {"norad_id": 34088, "name": "IRIDIUM 33 DEB", "group": "iridium-33-debris", "lat": 52.707192512004184, "lon": 33.72218657945447, "alt_km": 589.7342455140988, "timestamp": "2025-12-16T13:52:37.907037+00:00", "meta": {"OBJECT_NAME": "IRIDIUM 33 DEB", "OBJECT_ID": "1997-051CX", "EPOCH": "2025-12-15T20:42:59.185728", "MEAN_MOTION": 14.9153623, "ECCENTRICITY": 0.00061215, "INCLINATION": 86.3851, "RA_OF_ASC_NODE": 29.2892, "ARG_OF_PERICENTER": 165.6591, "MEAN_ANOMALY": 10.478, "EPHEMERIS_TYPE": 0, "CLASSIFICATION_TYPE": "U", "NORAD_CAT_ID": 34088, "ELEMENT_SET_NO": 999, "REV_AT_EPOCH": 88788, "BSTAR": 0.0014745475, "MEAN_MOTION_DOT": 0.00014815, "MEAN_MOTION_DDOT": 0}, "tle": {"line1": "1 34088U 97051CX  25349.86318502  .00014815  00000+0  14745-2 0  9992", "line2": "2 34088  86.3851  29.2892 0006121 165.6591  10.4780 14.91536230887884"}}, "geometry": {"type": "Point", "coordinates": [33.72218657945447, 52.707192512004184]}}, {"type": "Feature", "properties": {"norad_id": 34091, "name": "IRIDIUM 33 DEB", "group": "iridium-33-debris", "lat": 72.19343951471954, "lon": -126.41359431019745, "alt_km": 639.0413145944149, "timestamp": "2025-12-16T13:52:37.907047+00:00", "meta": {"OBJECT_NAME": "IRIDIUM 33 DEB", "OBJECT_ID": "1997-051DA", "EPOCH": "2025-12-15T11:27:56.316096", "MEAN_MOTION": 14.8204835, "ECCENTRICITY": 0.00334632, "INCLINATION": 86.3419, "RA_OF_ASC_NODE": 65.5797, "ARG_OF_PERICENTER": 283.2585, "MEAN_ANOMALY": 76.4905, "EPHEMERIS_TYPE": 0, "CLASSIFICATION_TYPE": "U", "NORAD_CAT_ID": 34091, "ELEMENT_SET_NO": 999, "REV_AT_EPOCH": 87907, "BSTAR": 0.002992099, "MEAN_MOTION_DOT": 0.00024071, "MEAN_MOTION_DDOT": 0}, "tle": {"line1": "1 34091U 97051DA  25349.47773514  .00024071  00000+0  29921-2 0  9998", "line2": "2 34091  86.3419  65.5797 0033463 283.2585  76.4905 14.82048350879078"}}, "geometry": {"type": "Point", "coordinates": [-126.41359431019745, 72.19343951471954]}}, {"type": "Feature", "properties": {"norad_id": 34097, "name": "IRIDIUM 33 DEB", "group": "iridium-33-debris", "lat": 65.1508819411474, "lon": 7.96380962428666, "alt_km": 754.5186191143475, "timestamp": "2025-12-16T13:52:37.907058+00:00", "meta": {"OBJECT_NAME": "IRIDIUM 33 DEB", "OBJECT_ID": "1997-051DG", "EPOCH": "2025-12-15T10:47:49.120512", "MEAN_MOTION": 14.34801497, "ECCENTRICITY": 0.00822859, "INCLINATION": 86.2009, "RA_OF_ASC_NODE": 0.2122, "ARG_OF_PERICENTER": 353.363, "MEAN_ANOMALY": 6.6468, "EPHEMERIS_TYPE": 0, "CLASSIFICATION_TYPE": "U", "NORAD_CAT_ID": 34097, "ELEMENT_SET_NO": 999, "REV_AT_EPOCH": 87158, "BSTAR": 0.0011004394, "MEAN_MOTION_DOT": 3.26e-05, "MEAN_MOTION_DDOT": 0}, "tle": {"line1": "1 34097U 97051DG  25349.44987408  .00003260  00000+0  11004-2 0  9990", "line2": "2 34097  86.2009   0.2122 0082285 353.3630   6.6468 14.34801497871585"}}, "geometry": {"type": "Point", "coordinates": [7.96380962428666, 65.1508819411474]}}, {"type": "Feature", "properties": {"norad_id": 34145, "name": "IRIDIUM 33 DEB", "group": "iridium-33-debris", "lat": 76.82964547663323, "lon": -12.73260533982089, "alt_km": 704.0377564004275, "timestamp": "2025-12-16T13:52:37.907068+00:00", "meta": {"OBJECT_NAME": "IRIDIUM 33 DEB", "OBJECT_ID": "1997-051DY", "EPOCH": "2025-12-15T22:32:13.316064", "MEAN_MOTION": 14.42312894, "ECCENTRICITY": 0.00557785, "INCLINATION": 86.2114, "RA_OF_ASC_NODE": 331.1023, "ARG_OF_PERICENTER": 83.6538, "MEAN_ANOMALY": 277.1011, "EPHEMERIS_TYPE": 0, "CLASSIFICATION_TYPE": "U", "NORAD_CAT_ID": 34145, "ELEMENT_SET_NO": 999, "REV_AT_EPOCH": 87684, "BSTAR": 0.0008179063, "MEAN_MOTION_DOT": 2.77e-05, "MEAN_MOTION_DDOT": 0}, "tle": {"line1": "1 34145U 97051DY  25349.93904301  .00002770  00000+0  81791-3 0  9995", "line2": "2 34145  86.2114 331.1023 0055778  83.6538 277.1011 14.42312894876849"}}, "geometry": {"type": "Point", "coordinates": [-12.73260533982089, 76.82964547663323]}}, {"type": "Feature", "properties": {"norad_id": 34146, "name": "IRIDIUM 33 DEB", "group": "iridium-33-debris", "lat": 11.684916923139282, "lon": 167.33511893448366, "alt_km": 716.0638598533496, "timestamp": "2025-12-16T13:52:37.907078+00:00", "meta": {"OBJECT_NAME": "IRIDIUM 33 DEB", "OBJECT_ID": "1997-051DZ", "EPOCH": "2025-12-15T18:01:50.948832", "MEAN_MOTION": 14.49071042, "ECCENTRICITY": 0.00257744, "INCLINATION": 86.2835, "RA_OF_ASC_NODE": 348.4705, "ARG_OF_PERICENTER": 211.0243, "MEAN_ANOMALY": 326.273, "EPHEMERIS_TYPE": 0, "CLASSIFICATION_TYPE": "U", "NORAD_CAT_ID": 34146, "ELEMENT_SET_NO": 999, "REV_AT_EPOCH": 88150, "BSTAR": 0.00065889946, "MEAN_MOTION_DOT": 2.531e-05, "MEAN_MOTION_DDOT": 0}, "tle": {"line1": "1 34146U 97051DZ  25349.75128413  .00002531  00000+0  65890-3 0  9995", "line2": "2 34146  86.2835 348.4705 0025774 211.0243 326.2730 14.49071042881508"}}, "geometry": {"type": "Point", "coordinates": [167.33511893448366, 11.684916923139282]}}, {"type": "Feature", "properties": {"norad_id": 34159, "name": "IRIDIUM 33 DEB", "group": "iridium-33-debris", "lat": 81.73546145005679, "lon": -159.45971920383613, "alt_km": 774.6128780885292, "timestamp": "2025-12-16T13:52:37.907089+00:00", "meta": {"OBJECT_NAME": "IRIDIUM 33 DEB", "OBJECT_ID": "1997-051EN", "EPOCH": "2025-12-15T14:03:07.774560", "MEAN_MOTION": 14.38501261, "ECCENTRICITY": 0.00259753, "INCLINATION": 86.3506, "RA_OF_ASC_NODE": 47.0281, "ARG_OF_PERICENTER": 277.6938, "MEAN_ANOMALY": 82.131, "EPHEMERIS_TYPE": 0, "CLASSIFICATION_TYPE": "U", "NORAD_CAT_ID": 34159, "ELEMENT_SET_NO": 999, "REV_AT_EPOCH": 88000, "BSTAR": 0.00040050586, "MEAN_MOTION_DOT": 1.247e-05, "MEAN_MOTION_DDOT": 0}, "tle": {"line1": "1 34159U 97051EN  25349.58550665  .00001247  00000+0  40051-3 0  9993", "line2": "2 34159  86.3506  47.0281 0025975 277.6938  82.1310 14.38501261880006"}}, "geometry": {"type": "Point", "coordinates": [-159.45971920383613, 81.73546145005679]}}, {"type": "Feature", "properties": {"norad_id": 34350, "name": "IRIDIUM 33 DEB", "group": "iridium-33-debris", "lat": -41.55760064824192, "lon": -175.5940351741988, "alt_km": 749.7665135061188, "timestamp": "2025-12-16T13:52:37.907099+00:00", "meta": {"OBJECT_NAME": "IRIDIUM 33 DEB", "OBJECT_ID": "1997-051ES", "EPOCH": "2025-12-15T19:24:26.787168", "MEAN_MOTION": 14.45393781, "ECCENTRICITY": 0.00230951, "INCLINATION": 86.3274, "RA_OF_ASC_NODE": 1.4756, "ARG_OF_PERICENTER": 125.7111, "MEAN_ANOMALY": 53.7358, "EPHEMERIS_TYPE": 0, "CLASSIFICATION_TYPE": "U", "NORAD_CAT_ID": 34350, "ELEMENT_SET_NO": 999, "REV_AT_EPOCH": 88337, "BSTAR": 0.00030646416, "MEAN_MOTION_DOT": 1.101e-05, "MEAN_MOTION_DDOT": 0}, "tle": {"line1": "1 34350U 97051ES  25349.80864337  .00001101  00000+0  30646-3 0  9993", "line2": "2 34350  86.3274   1.4756 0023095 125.7111  53.7358 14.45393781883372"}}, "geometry": {"type": "Point", "coordinates": [-175.5940351741988, -41.55760064824192]}}, {"type": "Feature", "properties": {"norad_id": 34366, "name": "IRIDIUM 33 DEB", "group": "iridium-33-debris", "lat": -50.848111235422536, "lon": 43.17253107603871, "alt_km": 735.3927422847355, "timestamp": "2025-12-16T13:52:37.907109+00:00", "meta": {"OBJECT_NAME": "IRIDIUM 33 DEB", "OBJECT_ID": "1997-051FJ", "EPOCH": "2025-12-15T05:21:52.451136", "MEAN_MOTION": 14.54081827, "ECCENTRICITY": 0.00226488, "INCLINATION": 86.3701, "RA_OF_ASC_NODE": 48.2333, "ARG_OF_PERICENTER": 131.8237, "MEAN_ANOMALY": 290.4174, "EPHEMERIS_TYPE": 0, "CLASSIFICATION_TYPE": "U", "NORAD_CAT_ID": 34366, "ELEMENT_SET_NO": 999, "REV_AT_EPOCH": 88218, "BSTAR": 0.00070731798, "MEAN_MOTION_DOT": 3.016e-05, "MEAN_MOTION_DDOT": 0}, "tle": {"line1": "1 34366U 97051FJ  25349.22352374  .00003016  00000+0  70732-3 0  9996", "line2": "2 34366  86.3701  48.2333 0022648 131.8237 290.4174 14.54081827882183"}}, "geometry": {"type": "Point", "coordinates": [43.17253107603871, -50.848111235422536]}}]}